{"type":"FeatureCollection","features":[{"type":"Feature","geometry":{"type":"Polygon","coordinates":[[[116.73448805114775,38.16583831159426],[116.73454706367878,38.165870581325855],[116.73456999554892,38.16588782457202],[116.75482768564626,38.18154359051209],[116.75485102066833,38.18156759400154],[116.75488036609202,38.18158710109877],[116.75490113627998,38.181605964850306],[116.78408381861435,38.20885085546386],[116.78408384534976,38.2088508890958],[116.78408418694036,38.20885119933228],[116.81326686959275,38.236096089781135],[116.81334118503787,38.23618957850432],[116.81341991674336,38.23628080981314],[116.81343345410893,38.23630337822003],[116.8232175840802,38.2532146032962],[116.8451377502328,38.24372663936131],[116.84519062213,38.24371089970315],[116.84523891233215,38.24368779921243],[116.84534107362143,38.24366611099688],[116.84544003092445,38.243636651735166],[116.84549639607484,38.24363313679753],[116.84555097965422,38.24362154891413],[116.84565678801991,38.24362313458697],[116.84576228359683,38.24361655565123],[116.84581765549058,38.24362554520837],[116.84587418774288,38.243626392299824],[116.84597522114137,38.243651125638564],[116.84607885784666,38.243667950700704],[116.84612882903637,38.243688729204656],[116.84618281015457,38.24370194384981],[116.84627102659192,38.243747856142505],[116.84636455520906,38.243786745981055],[116.84640514809422,38.243817659513574],[116.84645228130314,38.24384218986618],[116.84647572543388,38.24385902350583],[116.85505948593887,38.25019534894186],[116.8550929322565,38.25022817338467],[116.85513367176326,38.250255445499704],[116.85519347993156,38.25032685131879],[116.85526147761857,38.250393584349816],[116.85528191824282,38.250432438758246],[116.8553113365951,38.25046756155888],[116.85534336769601,38.25054924422234],[116.85538492432504,38.250628236416624],[116.85539073208697,38.25067002802953],[116.85540648750683,38.25071020579056],[116.85541102546017,38.25073489782275],[116.86073122638541,38.28280916038179],[116.86072962893742,38.28291357980069],[116.86073475379885,38.28301792923468],[116.86073104786735,38.28304270692744],[116.85476006261418,38.3186725769336],[116.87108188334362,38.356376142278314],[116.87108188968153,38.35637616870615],[116.8710820076739,38.356376429483305],[116.88748977383808,38.394278636938175],[116.8875108617932,38.39436660089084],[116.88754129255477,38.394452867867244],[116.88754492393171,38.39447765286422],[116.8935520638311,38.44115100525708],[116.89355001548971,38.44119010876887],[116.89355775333618,38.44122877305762],[116.89355775599864,38.44125372093087],[116.89287167525276,38.48023072993879],[116.89286228128695,38.48027769308906],[116.89286364588969,38.4803252165028],[116.8928373122033,38.48040252045433],[116.8928215014291,38.48048156266765],[116.89279572463218,38.48052460265451],[116.89278007832061,38.48057053300045],[116.89276719958737,38.48059335306492],[116.87560445520549,38.50988534039634],[116.87555679245463,38.50994332369797],[116.8755191399847,38.510005653408236],[116.87546946834739,38.5100495560497],[116.8754289307941,38.51009887105018],[116.87536246758523,38.510144129206026],[116.87530406478201,38.51019574866855],[116.87527949076667,38.51021164326162],[116.85545980576289,38.52266948313859],[116.84080320804172,38.55711868020669],[116.82610620637426,38.59166305249263],[116.82848000031277,38.63682197445058],[116.85158130635385,38.651048765898935],[116.85165725742638,38.65111096104558],[116.85174020227068,38.651167445266694],[116.85176894623352,38.65120242097934],[116.85180567350545,38.65123249620044],[116.85185635786334,38.651308783375775],[116.8519158001478,38.651381112479115],[116.85193089108624,38.65142096615389],[116.85195540028347,38.651457855788244],[116.85197678329315,38.651542162645434],[116.85200799125221,38.65162457933843],[116.85201219966805,38.651649309778655],[116.85729045746972,38.68632582692622],[116.89512217888026,38.716379190274814],[116.89531524511703,38.71658356085285],[116.89542746778032,38.71682187311128],[116.89544991322758,38.7170751576325],[116.89538079386732,38.71732325301925],[116.89522561074284,38.71754641072606],[116.89499671591682,38.717726867091066],[116.89471232940762,38.717850257419805],[116.89439508887885,38.71790675952963],[116.8940702475261,38.717891875692985],[116.89376366365744,38.71780679070631],[116.89349974207997,38.71765827756684],[116.8934770158794,38.717640728258225],[116.85536955045015,38.68736762424331],[116.85534750718881,38.687344259534605],[116.85531948826791,38.68732519023065],[116.85525141044081,38.687242401761125],[116.85517667722728,38.68716318801682],[116.85516387206768,38.687135947261],[116.85514379205073,38.68711152810849],[116.85510804848438,38.68701719201196],[116.85506463521482,38.686924837319495],[116.85506208737444,38.686895888913725],[116.85505154457361,38.686868063711366],[116.85504733303699,38.6868433333801],[116.84977998665826,38.652231559467566],[116.82663721365726,38.63797888139089],[116.8265309992786,38.63789184059772],[116.82642312169284,38.63780605698326],[116.82641898250995,38.637800044516105],[116.82641295253266,38.6377951030294],[116.82634209059472,38.637688353151624],[116.8262691820297,38.63758244753881],[116.82626735757911,38.637575771302984],[116.82626333462564,38.63756971089734],[116.82623346550965,38.63745174937915],[116.826201329214,38.63733415198806],[116.82620042138467,38.63732124839874],[116.82620026898037,38.63732064650819],[116.8262003367418,38.637320045312485],[116.82619957665631,38.63730924170168],[116.82379685361913,38.5915722186675],[116.8237998440362,38.59154904630757],[116.82379594789606,38.59152595631468],[116.82381609485955,38.59142312049035],[116.82382945276808,38.5913196112149],[116.82384060488361,38.591298013963666],[116.82384511510995,38.591274992365506],[116.8238547714799,38.59125121358125],[116.83861932425457,38.556550626384556],[116.83861933816479,38.55655060457155],[116.83861943514043,38.55655036577354],[116.85338398702751,38.521849778466034],[116.85345109879441,38.52174452575378],[116.85351538056099,38.521638197331875],[116.85352342935714,38.52163108791316],[116.85352884817968,38.52162258942129],[116.85363086453147,38.5215361913431],[116.85373054748493,38.52144814193177],[116.85374863712156,38.52143644887226],[116.85374905115492,38.52143609822367],[116.8537495245059,38.521435875270846],[116.85375513009366,38.52143225184277],[116.87362712692375,38.508941780116324],[116.89057616488489,38.48001595284802],[116.89125922857578,38.441280386420964],[116.88527325893412,38.3947601173578],[116.86890859447179,38.35695479793306],[116.85250189715329,38.319052431223575],[116.85248628558236,38.31898722796174],[116.85245956355921,38.3189242839945],[116.85245656374268,38.31886309144446],[116.85244215373737,38.318802906323974],[116.85245037640229,38.31873687701917],[116.8524471264825,38.31867058232359],[116.85245083706441,38.31864580489161],[116.85843823639092,38.282924831425774],[116.85319130122664,38.25128639079464],[116.8455138022323,38.24561898331252],[116.82323947386674,38.255260031311145],[116.82312987257629,38.25529263041938],[116.82302385599075,38.25533186459815],[116.82297930289116,38.25533741469154],[116.82293711734887,38.255349961985615],[116.82282028268074,38.255357224100905],[116.82270452998434,38.25537164346311],[116.82265977595175,38.25536720055779],[116.8226148063468,38.25536999564904],[116.82250003866567,38.255351342678686],[116.82238376410011,38.25533979940976],[116.8223423716839,38.25532571716969],[116.82229819772637,38.25531853756487],[116.82219463285836,38.25527545433053],[116.8220870921949,38.25523886731478],[116.82205235633086,38.255216266720986],[116.82201249437946,38.25519968394025],[116.82192837630073,38.25513559997327],[116.82183812998261,38.25507688163689],[116.82181281568491,38.25504756174719],[116.82178043881011,38.25502289582301],[116.8217224633602,38.254942912341946],[116.82165669502656,38.254866736791534],[116.8216431516501,38.254844169329424],[116.81141243886711,38.23716044573914],[116.78233156430579,38.21000994459498],[116.75318410655183,38.18279734473062],[116.7330275701042,38.16721949431278],[116.68709432254771,38.14120295689671],[116.64140890436441,38.11532694365594],[116.5872128424726,38.116933875762896],[116.58708830111898,38.11692363243028],[116.58696318308753,38.116919656553804],[116.58692838677213,38.116910479527],[116.58689188634482,38.11690747734762],[116.58677593855535,38.11687027335831],[116.58665721198088,38.116838960652544],[116.58662705869459,38.11682250228315],[116.58659307690696,38.116811598513166],[116.58649495240113,38.11675039539786],[116.58639206818361,38.11669423844393],[116.58636895817686,38.116671808856466],[116.58634020004443,38.11665387146653],[116.58626770964409,38.11657354113063],[116.58618885746255,38.116497010153],[116.58617463028315,38.116470394785495],[116.58615338496416,38.11644685163114],[116.58611229881733,38.11635378850944],[116.58606375520165,38.1162629755039],[116.58605954326967,38.11623429297428],[116.5860475018448,38.11620701812574],[116.58604109014931,38.11610863014304],[116.58602671890081,38.116010763912],[116.58602799894852,38.115985836374094],[116.58840599750307,38.081510640989244],[116.54890107927014,38.04746742328386],[116.54889104465376,38.04745583637498],[116.54887765647426,38.047446587418214],[116.54880039676617,38.04735116562062],[116.54871942766219,38.04725767060714],[116.5487139021566,38.04724433764042],[116.54870432733401,38.047232511921344],[116.54866398741471,38.04712389384336],[116.54861940225791,38.047016309931486],[116.54861882565673,38.04700229222589],[116.54861382631947,38.04698883108765],[116.54861361692137,38.046875662829436],[116.54860896434306,38.04676255377852],[116.54861338249387,38.04674896714827],[116.54861335654314,38.04673494210501],[116.54861821418564,38.04671028926674],[116.56333058336432,37.97825024425675],[116.5432028922838,37.93762573798372],[116.52433029216473,37.90432489513221],[116.50544646243229,37.87100424870308],[116.50542444497047,37.87094356487187],[116.50539169453971,37.87088597817164],[116.50538038948078,37.870822140213576],[116.50535790649897,37.87076017301089],[116.50535823728612,37.8706970497964],[116.5053471664149,37.87063453393823],[116.50535889916932,37.87057074409316],[116.50535923695028,37.870506285931],[116.50538188943078,37.87044574795309],[116.50539337913773,37.87038327921126],[116.50542721555124,37.87032461513761],[116.50545034697834,37.870262796872034],[116.50549351781298,37.87020966291678],[116.50552665330873,37.870152213765515],[116.50554404309949,37.87013138229534],[116.51083857355445,37.86397577917106],[116.47217185829543,37.86439323449913],[116.47209193909633,37.864385109487344],[116.47201136769206,37.86438599121917],[116.47193325935812,37.864368977093925],[116.47185289600603,37.86436080675948],[116.47177903237447,37.86433538207632],[116.47170135588826,37.864318461843574],[116.47163237608123,37.86428490116096],[116.47155810205487,37.86425933502397],[116.47149617370779,37.86421863453648],[116.47142757536993,37.86418525924044],[116.47137321500641,37.864137823510056],[116.47131094265546,37.86409689670413],[116.47126587915412,37.864044160260555],[116.47121181947247,37.86399698665568],[116.47117640563889,37.86393945185533],[116.47113109185992,37.86388642224106],[116.47110648019658,37.863825847752054],[116.47107126227517,37.86376863094198],[116.47105761379103,37.86370557692165],[116.47103286545301,37.863644665732814],[116.47103066454602,37.8635810749907],[116.4710170915724,37.86351836949464],[116.47101665392115,37.86349342401402],[116.47101789453063,37.78312249310466],[116.44441280642529,37.74952932523063],[116.41763423946813,37.71571723339493],[116.39085567156617,37.68190514136866],[116.36407695474574,37.6480928622083],[116.364056340005,37.648056144948036],[116.36402716502627,37.64802326699798],[116.36399149497997,37.64794064812708],[116.36394670045327,37.64786086343466],[116.36393985892443,37.64782104848144],[116.36392344348693,37.647783026891666],[116.36391833844858,37.64769580766403],[116.36390347224538,37.647609291882205],[116.36391094838235,37.64756954853004],[116.36390859903258,37.647529409845774],[116.36393446505976,37.64744453293841],[116.36395071022591,37.64735817274107],[116.36397190878787,37.647321664553196],[116.36398381239161,37.647282603809906],[116.36403859026177,37.647206825383144],[116.36408465339626,37.64712749499175],[116.36411788687265,37.64709712798407],[116.36414309578488,37.64706225438307],[116.36416279127178,37.647042781245744],[116.37793142355245,37.633806631562486],[116.3349356546245,37.599344411643855],[116.33474487119395,37.59914042333417],[116.33463359495646,37.59890233336908],[116.33461068282377,37.59864909393995],[116.33467795771874,37.59840086295573],[116.33483006374651,37.598177399457704],[116.3350548927772,37.59799649084506],[116.33533454840627,37.59787253709008],[116.33564677051234,37.59781540461058],[116.33596670701735,37.59782964099695],[116.33626889186179,37.59791411307242],[116.33652927182652,37.59806209708151],[116.3365517086047,37.59807960075656],[116.38026874419288,37.63311891874982],[116.3802774689403,37.633128233693746],[116.38028890158843,37.63313548179314],[116.3803728085493,37.633230022476376],[116.38045973972089,37.63332283372952],[116.38046483191646,37.63333370783186],[116.38047325321236,37.63334319632839],[116.38052047685734,37.633452534307985],[116.38057121423797,37.6335608806258],[116.38057226851556,37.63357244832097],[116.38057700810502,37.63358342194401],[116.38058378912994,37.63369885402963],[116.38059429369511,37.633814111136395],[116.3805912260947,37.633825451641115],[116.38059190667076,37.63383703689769],[116.38055770490396,37.633949374726974],[116.38052714008334,37.634062368163484],[116.38052019474634,37.6340725787697],[116.38051676209402,37.63408385347194],[116.3804442996198,37.63418415489575],[116.38037509801505,37.634285890302785],[116.38036482776323,37.6342941582347],[116.38035755508781,37.634304224906245],[116.38033786722264,37.6343237007352],[116.36643799112768,37.64768659354606],[116.39278239532254,37.680949101145515],[116.39278241534227,37.6809491367578],[116.39278269171827,37.68094947537884],[116.41956209001029,37.714761505950996],[116.41956211004712,37.71476154159712],[116.41956238670251,37.714761880558626],[116.44634178563435,37.74857391093635],[116.44634180568823,37.74857394661628],[116.44634208262308,37.74857428591835],[116.47312148219635,37.78238631610165],[116.47317882092628,37.78248834297309],[116.47324056048988,37.782588752879796],[116.47324388125655,37.78260410906122],[116.47325188276355,37.78261834663685],[116.47327088254121,37.78272897053626],[116.47329467935941,37.78283901330935],[116.4732951173022,37.78286395878154],[116.4732963478038,37.86258133610244],[116.51299494304061,37.86215217890068],[116.51309212863913,37.862162025423444],[116.51319009803943,37.86216329590103],[116.51325084929798,37.862178106297186],[116.51331391384275,37.86218449565628],[116.51340374803956,37.86221538093143],[116.51349736895301,37.862238204320974],[116.51355046271587,37.86226582168922],[116.51360875695661,37.862285863279645],[116.5136840891572,37.86233532891521],[116.51376590957109,37.86237788854137],[116.51380711966397,37.862416114603576],[116.5138560034859,37.86244821316909],[116.51391083732409,37.86251232180906],[116.51397434441704,37.862571230026035],[116.51400039050822,37.862617022061336],[116.51403597277157,37.86265862262418],[116.51406594339623,37.862732271329335],[116.51410608193278,37.86280283914495],[116.5141148906499,37.862852552168135],[116.51413433892078,37.862900343383174],[116.51413706046232,37.86297766979235],[116.51415063521158,37.86305428007884],[116.51414150521461,37.863103956963144],[116.51414327125353,37.86315413468143],[116.51411852680383,37.86322898363292],[116.51410445694353,37.86330553822728],[116.51407811480304,37.863351224683164],[116.51406205785379,37.863399794751395],[116.5140118168175,37.8634662082286],[116.51397122205226,37.863536613340266],[116.5139538362001,37.86355744604972],[116.5077871706588,37.87072745758248],[116.52641245075532,37.90359002727763],[116.526412461088,37.90359005571953],[116.52641262358969,37.90359033222992],[116.54529729405127,37.93691079844188],[116.54530053966394,37.93691973398722],[116.54530661508049,37.936927698716566],[116.54531852987262,37.93695080914265],[116.56557226819821,37.977827206251376],[116.5656021912384,37.977927485384605],[116.56563890033588,37.97802635377115],[116.56563895094283,37.978050675399366],[116.56564601570557,37.978074350955254],[116.56563921426441,37.978177227087706],[116.56563942861405,37.97828024268185],[116.56563458122613,37.97830489621956],[116.55096463227653,38.046577952596614],[116.59041739522536,38.08057515281729],[116.59048206831895,38.08064972495134],[116.59055430527262,38.0807198632164],[116.59057261838414,38.08075413454187],[116.59059924911801,38.080784841286],[116.59063488703725,38.08087066441073],[116.59067936107797,38.08095389310553],[116.59068478440449,38.080990826736624],[116.59069945920206,38.08102616635386],[116.59070322492403,38.08111640903759],[116.5907163956696,38.08120610323716],[116.59071511782993,38.08123103082586],[116.5883801407065,38.1150984960901],[116.64171500525205,38.11351672580965],[116.64175410975844,38.113519923956105],[116.64179318240411,38.113516493209154],[116.64191399880931,38.11353300028063],[116.6420359662385,38.11354297508428],[116.64207237909707,38.11355463948368],[116.64211111462403,38.11355993181212],[116.64222126272625,38.11360233231849],[116.64233483503519,38.11363871348647],[116.64236565787189,38.11365791568123],[116.64240097303248,38.11367150983379],[116.64242695533206,38.1136858101272],[116.6884312792629,38.13974230646542],[116.68843132744652,38.139742342870136],[116.68843189690308,38.13974265629214],[116.73443622082398,38.16579915241802],[116.73448805114775,38.16583831159426]]]},"id":"0","properties":{"buffer":"100m"}},{"type":"Feature","geometry":{"type":"Polygon","coordinates":[[[116.73592909722635,38.164455965577396],[116.73610613353276,38.164552772520345],[116.73617492903834,38.164604501335944],[116.75643260712621,38.18025999155696],[116.75650261259135,38.180332001058574],[116.75659064874316,38.180390521095276],[116.75665295964434,38.18044711143513],[116.78583583289763,38.20769156839394],[116.78583591310496,38.20769166928856],[116.78583693788286,38.207692599982735],[116.81501981209045,38.23493705644746],[116.81524276220644,38.235217519160514],[116.81547896191519,38.235491209118244],[116.81551957551328,38.23555891362473],[116.82427981367347,38.25070006473686],[116.84403139856737,38.24215051764836],[116.84419001147009,38.242103300091756],[116.8443348797347,38.2420339997902],[116.84464135725656,38.241968937228805],[116.844938222845,38.241880560957],[116.84510731426806,38.24187001678319],[116.84527106116856,38.24183525359778],[116.84558847846155,38.24184001108524],[116.84590495739097,38.24182027417817],[116.8460710690617,38.241847242570394],[116.84624066168286,38.241849783398806],[116.84654375505147,38.241923982212704],[116.84685465831932,38.241974455625886],[116.84700456914705,38.242036790087305],[116.84716650935827,38.24207643274526],[116.84743115495083,38.242214167216325],[116.84771173704463,38.242330833747246],[116.84783351508342,38.24242357291078],[116.84797491353997,38.24249716219831],[116.84804524572114,38.24254766219459],[116.85662898816751,38.24888387330831],[116.85672932752688,38.248982345271905],[116.85685154588593,38.24906415987766],[116.8570309728657,38.249278374628354],[116.85723496841977,38.24947857042291],[116.85729629275113,38.24959513261058],[116.8573845497968,38.24970049948187],[116.8574806492915,38.24994554575552],[116.8576053253827,38.250182520033256],[116.85762275241206,38.25030789454272],[116.8576700221901,38.25042842692422],[116.85768363831355,38.25050250275874],[116.8630048259537,38.28257666264358],[116.86300004342242,38.28288992099258],[116.86301542783669,38.28320296899732],[116.86300431234159,38.28327730229042],[116.8571041550183,38.318491319881204],[116.87325507527531,38.35579730291531],[116.87325509429121,38.35579738219847],[116.87325544828899,38.35579816452339],[116.889664222068,38.39370006894214],[116.88972749351723,38.39396395961998],[116.88981879344534,38.39422275880619],[116.88982968989103,38.39429711358593],[116.89583829132579,38.44097034925647],[116.89583215002591,38.44108765991105],[116.89585536722453,38.44120365232542],[116.8958553775942,38.44127849594497],[116.89517053848398,38.48025551830539],[116.89514236103355,38.48039640830466],[116.89514645936364,38.48053897846638],[116.89506746524553,38.48077089183635],[116.89502003991312,38.48100801936911],[116.89494271280358,38.4811371407581],[116.89489577751453,38.48127493264637],[116.89485714292229,38.48134339353045],[116.87769506974409,38.510635685860066],[116.87755208482186,38.51080963824896],[116.8774391310392,38.510996629260084],[116.87729011740677,38.51112833955444],[116.87716850649922,38.51127628639676],[116.87696911664189,38.51141206370114],[116.87679390835117,38.511566924395375],[116.87672018585538,38.511614609093186],[116.85742871499477,38.52374068706916],[116.84298707094402,38.55768682374521],[116.8284242195919,38.59191848797361],[116.83073863553948,38.635921256564096],[116.85300795608427,38.64963533003692],[116.85323580891774,38.64982191256217],[116.85348464309914,38.64999136170574],[116.85357087621114,38.65009628754187],[116.85368105868758,38.650186511480534],[116.85383311585588,38.65041537051327],[116.85401144683243,38.650632354731925],[116.85405672272235,38.65075191494261],[116.85413025298686,38.650862582499634],[116.85419440931184,38.651115501871665],[116.85428804050026,38.65136275015808],[116.8543006680716,38.65143694123318],[116.85948708046502,38.685503199761904],[116.89676728380708,38.71511762923891],[116.89734648971779,38.71573073190438],[116.89768317625321,38.716445662532664],[116.89775053669888,38.717205514789235],[116.89754320075843,38.71794980489035],[116.89707766465224,38.71861928596987],[116.89639098042754,38.71916066455852],[116.8955378080598,38.719530843610094],[116.89458606454681,38.71970035405952],[116.8936115163183,38.71965570143829],[116.89269174584182,38.7194004404826],[116.8918999734276,38.71895489205535],[116.89183179480096,38.71890224318729],[116.85372435378488,38.688628605250805],[116.85365822449033,38.68855851018583],[116.85357416769665,38.688501301044745],[116.85336993738949,38.68825293248247],[116.853145741328,38.68801528751482],[116.85310732774077,38.68793356457881],[116.85304708916517,38.687860306056045],[116.8529398659201,38.68757729581943],[116.85280963382424,38.687300229289384],[116.85280199300618,38.6872133839252],[116.85277036712483,38.68712990770657],[116.85275773484278,38.68705571646692],[116.84760399582271,38.65318369350706],[116.82521027592703,38.63939199695271],[116.82489163248097,38.639130870414384],[116.82456800079062,38.638873514757975],[116.82455558352596,38.638855477160035],[116.82453749371564,38.63884065241203],[116.82432491381357,38.638520399256535],[116.8241061951677,38.63820267852703],[116.82410072237408,38.63818264971874],[116.82408865396305,38.63816446827878],[116.82399905690345,38.637810582042924],[116.82390265884806,38.63745778800976],[116.82389993659781,38.63741907718851],[116.82389947944229,38.6374172715079],[116.82389968278471,38.63741546792478],[116.82389740356618,38.63738305704772],[116.82149614540059,38.59164598701088],[116.82150511888294,38.591576470106546],[116.82149343267959,38.59150719989928],[116.82155388327507,38.5911986936002],[116.82159396654419,38.590888166541006],[116.82162742468701,38.5908233754206],[116.82164095739677,38.59075431088041],[116.82166992846739,38.59068297506865],[116.8364354195597,38.55598266230896],[116.83643546129207,38.555982596870635],[116.83643575223842,38.55598188048211],[116.85120124066799,38.521281567389956],[116.85140258336583,38.52096581287602],[116.8515954350881,38.52064683086449],[116.85161958170808,38.520625503000936],[116.85163583861913,38.52060000778784],[116.85194188940807,38.52034081821511],[116.85224093876887,38.52007667402295],[116.85229520735308,38.52004159552351],[116.85229644945026,38.52004054359313],[116.8522978694891,38.52003987475224],[116.85231468614383,38.52002900467478],[116.87176309635201,38.507805010735005],[116.88828402549211,38.47961118723094],[116.88895979040691,38.44135849236512],[116.88301468543787,38.39514450782345],[116.86673520867232,38.357533269874665],[116.85032964141875,38.31963088769545],[116.85028281227748,38.31943527704005],[116.85020265159108,38.319246443620486],[116.85019365783151,38.31906286579786],[116.85015043340385,38.31888230960063],[116.85017510764214,38.318684222164514],[116.85016536414926,38.31848533788936],[116.85017649819834,38.318411005808755],[116.85612586694246,38.28292367464238],[116.85102443756507,38.252156984657105],[116.8451595024437,38.24782755650217],[116.82434557414977,38.256836348196416],[116.82401676433918,38.256934148301596],[116.82369870849085,38.257051852945345],[116.82356504616246,38.25706850394041],[116.8234384867803,38.25710614640642],[116.82308797438493,38.25712793389608],[116.82274070785505,38.25717119243037],[116.82260644244185,38.257157863704656],[116.82247153028598,38.25716624886582],[116.82212721901851,38.257110289200874],[116.82177838716638,38.25707565794627],[116.82165420735134,38.257033410544544],[116.82152168259444,38.257011870906496],[116.82121098249966,38.25688261888313],[116.82088835518456,38.25677285484846],[116.82078414657592,38.25670505197634],[116.8206645591944,38.2566553023067],[116.82041220391453,38.25646304733908],[116.82014146412749,38.256286888639316],[116.82006552208489,38.256198927860574],[116.81996839176689,38.25612492862115],[116.81979446914598,38.255884975418056],[116.81959716806426,38.25565644542873],[116.81955653943746,38.25558874232769],[116.80945652269979,38.23813011953825],[116.78057906997383,38.21116883577822],[116.75150186985964,38.184021252593645],[116.73154765306528,38.16859951301819],[116.68575700341023,38.142663417338326],[116.64070985397423,38.117148899897096],[116.58729832781349,38.11873239190215],[116.58692469461953,38.11870166178063],[116.58654933145384,38.118689733232586],[116.58644494015955,38.118662201755214],[116.58633543631952,38.11865319473447],[116.58598758584057,38.11854158078411],[116.58563139928508,38.11844763992831],[116.58554093816795,38.11839826401051],[116.58543899112226,38.11836555173269],[116.58514461473594,38.11818193926244],[116.58483595962285,38.11801346459881],[116.58476662982656,38.1179461749084],[116.58468035514684,38.117892361545884],[116.58446288621374,38.11765136734507],[116.58422633234801,38.117421770635424],[116.58418365244617,38.11734192381787],[116.58411991769535,38.11727129326774],[116.58399666595156,38.116992101735406],[116.58385104208651,38.116719660047615],[116.58383840882864,38.11663361222138],[116.58380228687228,38.116551786992034],[116.58378306082126,38.11625662267702],[116.58373995618183,38.115963023153675],[116.58374379866144,38.1158882406144],[116.58607084733951,38.082167320650754],[116.54721346336578,38.04868108570191],[116.54718335982832,38.048646324542354],[116.54714319529413,38.048618577086515],[116.54691141984578,38.048332308136594],[116.54666851713634,38.048051819042946],[116.54665194156637,38.04801181985409],[116.54662321780594,38.047976342192804],[116.54650220644048,38.04765048578411],[116.54636845993156,38.04732773154891],[116.54636673141428,38.04728567839915],[116.54635173459224,38.04724529469775],[116.54635111688765,38.04690578991134],[116.54633716967648,38.04656646249066],[116.54635042535334,38.046525702854474],[116.54635034880187,38.046483627723276],[116.54636492395564,38.04640966948726],[116.56097384122357,37.97844118950301],[116.54109722129289,37.93832083652818],[116.52224800553013,37.90505957381829],[116.50336510232549,37.871738899838164],[116.50329905453326,37.87155684716962],[116.5032008075605,37.8713840852756],[116.5031668979082,37.871192570769765],[116.50309945432225,37.87100666788628],[116.5031004524901,37.87081729826189],[116.50306724562589,37.87062975005016],[116.50310244974771,37.87043838119026],[116.5031034690093,37.87024500672329],[116.50317143165839,37.87006339407321],[116.50320590616425,37.86987598848887],[116.50330741976929,37.86969999811699],[116.50337681868143,37.869514544550924],[116.50350633416913,37.869355144909264],[116.50360574399673,37.869182799098446],[116.50365791428231,37.869120305527844],[116.50649397371932,37.86582326082169],[116.47220256019169,37.86619284447513],[116.47196279678211,37.86616846934],[116.47172107670933,37.866171114106734],[116.47148674634042,37.86612007100092],[116.47124565075728,37.866095558923256],[116.47102405542779,37.86601928359735],[116.47079102127138,37.86596852125808],[116.47058407864881,37.865867837496275],[116.47036125302921,37.86579113696983],[116.47017546631454,37.86566903352957],[116.46996966923143,37.865568905223405],[116.46980658810428,37.86542659594651],[116.46961977060212,37.865303812955126],[116.46948458170822,37.865145601639355],[116.46932240386785,37.86500407830738],[116.46921616550654,37.86483147217693],[116.46908022695152,37.8646723810284],[116.46900639635275,37.86449065626542],[116.46890074669109,37.864319003927335],[116.46885980657424,37.864129841110085],[116.46878556670526,37.863947106148125],[116.46877896978599,37.863756333796275],[116.46873825658538,37.86356821652812],[116.46873694594574,37.863493380061],[116.46874064385543,37.783639517913244],[116.44248362886317,37.75048452062481],[116.41570619078955,37.7166727421657],[116.38892874989813,37.68286096315582],[116.36215086225053,37.649048622724344],[116.36208902015024,37.64893846992745],[116.36200149686451,37.648839834602306],[116.36189449254721,37.648591976127776],[116.3617601148355,37.64835261962119],[116.36173959365172,37.64823317438164],[116.36169035049548,37.64811910869093],[116.36167504321425,37.64785745071881],[116.36163045245087,37.64759790252344],[116.36165288448326,37.64747867289591],[116.36164584011111,37.64735825670872],[116.36172344559378,37.6471036274519],[116.36177218846764,37.64684454776292],[116.3618357868636,37.64673502435738],[116.36187150072534,37.64661784276787],[116.36203583899487,37.64639051034166],[116.36217403300147,37.64615252144996],[116.36227373438383,37.64606142200684],[116.36234936259248,37.64595680236504],[116.36240844955364,37.64589838383785],[116.37487283341125,37.6339165854242],[116.33331954569893,37.60060920049588],[116.33274720210912,37.59999722684163],[116.33241339086706,37.59928295100685],[116.33234467725528,37.598523231419065],[116.3325465229317,37.597778542210804],[116.33300285366113,37.5971081593373],[116.33367734110844,37.59656544261806],[116.3345162959493,37.59619358912446],[116.33545294157896,37.59602219568494],[116.33641272821896,37.59606490382298],[116.33731926482874,37.59631831432679],[116.33810039734381,37.596762257715575],[116.33816770764288,37.596814767835745],[116.38188476087944,37.63185348965385],[116.38191093529021,37.631881434126676],[116.38194523314374,37.63190317794874],[116.38219695681407,37.632186796301255],[116.38245775415378,37.63246522585431],[116.38247303144571,37.632497847903046],[116.3824982958249,37.63252631296264],[116.38263997455802,37.6328543244236],[116.38279219518907,37.63317936058885],[116.38279535904383,37.633214063615014],[116.38280957873273,37.63324698421678],[116.38282993218262,37.63359328008905],[116.38286145638276,37.633939050808856],[116.38285225460116,37.633973072498804],[116.38285429739159,37.63400782822954],[116.38275170180587,37.63434484364694],[116.38266001658593,37.63468382563033],[116.3826391812742,37.63471445782281],[116.38262888418964,37.63474828211339],[116.38241150278934,37.63504919012697],[116.38220390307008,37.63535439967339],[116.38217309247517,37.63537920394205],[116.38215127485932,37.63540940428828],[116.38209221176488,37.63546783265946],[116.36923401668638,37.6478297907229],[116.39470892115665,37.67999284249158],[116.39470898121783,37.67999294932748],[116.39470981036158,37.67999396517708],[116.42148974241194,37.71380555984725],[116.42148980252442,37.713805666784644],[116.42149063250629,37.71380668365563],[116.44827056647604,37.74761827774249],[116.44827062663974,37.74761838478133],[116.44827145745998,37.747619402673976],[116.47505139335384,37.78143099617755],[116.47522341578701,37.7817370739027],[116.47540864143095,37.78203830032567],[116.47541860501232,37.782084368687116],[116.47544261063044,37.78212708097118],[116.47549961959177,37.78245895160475],[116.47557101995281,37.78278907856479],[116.47557233608603,37.78286391495603],[116.47557594302877,37.86075711630563],[116.51296324676028,37.860352579687984],[116.51325479650203,37.86038211909479],[116.51354869762359,37.86038592987973],[116.5137309472935,37.860430360421816],[116.51392013659903,37.86044952763007],[116.51418963383333,37.86054218186904],[116.5144704911014,37.86061064994858],[116.51462977008586,37.86069350067091],[116.5148046500528,37.86075362375969],[116.51503064466736,37.86090201823665],[116.5152761037515,37.86102969414996],[116.5153997342467,37.86114437071445],[116.51554638539044,37.861240664375124],[116.51571088890698,37.861432987866976],[116.51590141201646,37.86160970951515],[116.51597955295962,37.861747084330254],[116.51608630196148,37.86187188419992],[116.51617621920217,37.862092828733424],[116.5162966400593,37.86230452999017],[116.5163230705005,37.862453668568094],[116.5163814193688,37.86259704111394],[116.51638959105014,37.862829020185984],[116.51643032232501,37.863058850264835],[116.51640293690541,37.86320788144363],[116.51640823965609,37.863358414496936],[116.51633401285162,37.86358296275771],[116.5162918098845,37.86381262732653],[116.51621278688944,37.86394968813844],[116.51616461980772,37.86409539920614],[116.51601390068893,37.86429464225387],[116.51589212052968,37.86450585960892],[116.51583996388683,37.86456835857694],[116.51038726773544,37.87090851106108],[116.52849448130887,37.90285497029177],[116.52849451230904,37.90285505561684],[116.52849499983273,37.90285588513949],[116.54738042523192,37.9361760185036],[116.54739016273471,37.936202824967715],[116.54740838948987,37.93622671883248],[116.54744413553033,37.93629604947132],[116.56769887646648,37.97717208204629],[116.56778865374783,37.97747291780696],[116.56789878949083,37.977769520893666],[116.56789894355796,37.977842485775355],[116.56792013998681,37.97791351203621],[116.56789974521392,37.97822214082512],[116.56790039778394,37.978531187594946],[116.56788585783919,37.97860514848582],[116.5534041361282,38.04601265392767],[116.59210502994111,38.079360872679125],[116.59229905155885,38.07958458620043],[116.59251576490713,38.07979499752644],[116.59257070635621,38.07989781058118],[116.59265060020641,38.07998992944289],[116.59275752027565,38.08024739692633],[116.59289094881214,38.0804970805606],[116.59290722205762,38.08060788114814],[116.5929512494846,38.08071389916526],[116.59296255496713,38.08098462700031],[116.59300207554388,38.08125370883806],[116.5929982443573,38.081328491678384],[116.590800126334,38.11322621566719],[116.64162818600809,38.11171824940574],[116.64174549663751,38.11172784389257],[116.6418627116887,38.11171755162144],[116.6422251521881,38.1117670722511],[116.64259104585628,38.11179699531887],[116.64270028212152,38.11183198796945],[116.642816486115,38.11184786429818],[116.6431469242879,38.11197506353319],[116.64348763534612,38.11208420403606],[116.64358010284609,38.11214180969268],[116.64368604684616,38.11218259102811],[116.64376399294125,38.11222549104216],[116.68976787355837,38.13828146605023],[116.68976801810841,38.13828157526276],[116.68976972646112,38.13828251550939],[116.73577360704832,38.164338489880414],[116.73592909722635,38.164455965577396]]]},"id":"1","properties":{"buffer":"300m"}},{"type":"Feature","geometry":{"type":"Polygon","coordinates":[[[116.74097232817634,38.15961761586657],[116.74156243418224,38.15994027940737],[116.74179175130925,38.160112698026545],[116.76204938702114,38.17576722321057],[116.76228274322311,38.1760072436046],[116.76257619566698,38.17620229575315],[116.76278390260289,38.17639091954747],[116.79196744343056,38.203633858622766],[116.79196771080179,38.20363419492425],[116.79197112679911,38.203637297060475],[116.82115467080689,38.23088023448878],[116.82189788195127,38.2318150698716],[116.82268526787264,38.23272732342903],[116.82282066404457,38.23295299678431],[116.82799703855291,38.24189910426373],[116.84015954547445,38.2366340098759],[116.84068822261423,38.236476634559125],[116.84117108951071,38.23624564721014],[116.84219260722308,38.23602879632912],[116.84318208545447,38.23573422641007],[116.8437456765428,38.235699086618375],[116.8442914547806,38.235583214755785],[116.84534942139216,38.2355990785163],[116.8464042601557,38.23553328766256],[116.84695791894347,38.235623179046435],[116.84752317943794,38.235631643272555],[116.84853341103134,38.23587895862612],[116.84956967537609,38.23604718265341],[116.85006934615652,38.236254951937795],[116.85060911019013,38.23638707922937],[116.85149121877237,38.236846166052956],[116.85242644858033,38.237235019672966],[116.85283236817835,38.23754413348892],[116.8533036827107,38.237789410463016],[116.85353812085076,38.23795773302022],[116.86212179995667,38.24429354400089],[116.86245626922592,38.24462176795682],[116.86286366187021,38.24489446301859],[116.86346178066351,38.24560848060976],[116.86414179491611,38.24627576144368],[116.86434623803108,38.246664289962474],[116.86464045137947,38.24701549500896],[116.86496085525582,38.247832295888074],[116.86537651459618,38.248622183250596],[116.8654346483652,38.24904009443842],[116.86559225533527,38.249441858522204],[116.86563766881974,38.249688774911554],[116.87096230972969,38.28176257504431],[116.87094648243858,38.282806770609284],[116.8709978785031,38.28385026048401],[116.87096085368091,38.2840980406322],[116.86530838618435,38.3178565527916],[116.88086097338477,38.35377104929013],[116.88086103679701,38.35377131356328],[116.88086221703057,38.35377392123674],[116.89727451681918,38.39167476463755],[116.89748551011844,38.392554386455814],[116.89778993237626,38.39341703007006],[116.89782628086759,38.39366487687037],[116.90383999740983,38.44033770343249],[116.90381956985988,38.44072874033567],[116.90389700320993,38.44111537644266],[116.90389706556932,38.44136485517021],[116.9032165722146,38.48034192377055],[116.90312269926325,38.48081156349662],[116.9031364131201,38.48128679643803],[116.90287318037988,38.482059858679406],[116.90271517749879,38.48285029419934],[116.9024574587558,38.48328071549201],[116.90230105033034,38.483740031705665],[116.90217228711386,38.48396824270967],[116.88501256375773,38.51326160227595],[116.88453598621639,38.51384147255146],[116.88415951593456,38.514464797857215],[116.88366281876371,38.51490385982258],[116.88325746952397,38.51539703743984],[116.88259283398223,38.515849661553226],[116.88200880774156,38.516365890780094],[116.88176306084313,38.516524850490505],[116.86432035899612,38.5274896411536],[116.85063086291238,38.559675006691435],[116.83653739579816,38.5928121520631],[116.83864341202055,38.63276840204934],[116.85800078689016,38.64468816808534],[116.85876029184473,38.645310075832555],[116.85958973500732,38.64587486525112],[116.85987719298161,38.64622460285081],[116.86024447560351,38.64652532919261],[116.86075138058843,38.647288163544324],[116.86134586526622,38.648011408206784],[116.86149682076297,38.648409932748486],[116.86174195282115,38.64877880889968],[116.8619558923476,38.64962185947304],[116.86226808159732,38.65044599950945],[116.86231020061089,38.650693300226415],[116.86717486329825,38.6826236810648],[116.90252469377029,38.71070198410151],[116.90445546410493,38.71274555385338],[116.90557796888427,38.71512858422105],[116.90580278490603,38.71766140980813],[116.90511192343425,38.72014242277249],[116.90356029124023,38.72237411922209],[116.90127134680849,38.724178825282976],[116.89842728910853,38.72541284956225],[116.89525455488219,38.72597793246729],[116.89200577875364,38.72582907742938],[116.8889396569819,38.724978137617114],[116.88630032598984,38.723492871079074],[116.88607306361315,38.72331736385911],[116.8479657087383,38.69304185724545],[116.84774528347111,38.69280819607541],[116.8474650938011,38.69261748459635],[116.84678436315639,38.691789552595935],[116.8460370847257,38.690997359132126],[116.84590906150667,38.69072494154711],[116.84570828347148,38.690480734043874],[116.84535095963159,38.689537343877966],[116.84491694264082,38.68861376016818],[116.84489150478574,38.688324273909316],[116.84478611459704,38.68804601271475],[116.84474403415055,38.68779870571618],[116.83998757225103,38.6565158451785],[116.82021555072477,38.64433776490919],[116.8191534023033,38.64346729459696],[116.81807464246108,38.64260938624989],[116.81803325489346,38.64254925863077],[116.81797295694471,38.642499839445534],[116.81726442626349,38.641432287841056],[116.8165354463692,38.64037317334701],[116.81651721023538,38.64030640947654],[116.81647698744352,38.640245802075356],[116.81617845062222,38.63906616168108],[116.81585725014853,38.637890159880136],[116.81584819042162,38.637761123188604],[116.81584666723877,38.637755104148816],[116.81584734572553,38.637749092251546],[116.81583976044016,38.63764105547461],[116.81344362943351,38.59190382150877],[116.81347356707069,38.59167210054301],[116.8134346389264,38.59144119718713],[116.81363625413043,38.590412856561024],[116.8137699763619,38.589377775319846],[116.81388152445672,38.58916181230781],[116.81392665718016,38.58893160014268],[116.81402325028735,38.58869382041636],[116.82879202490503,38.5539944685492],[116.82879216403221,38.553994250430556],[116.82879313408043,38.55399186253176],[116.84356189982344,38.51929250955596],[116.84423312843221,38.5182400367773],[116.84487604241565,38.51717680137645],[116.84495653384884,38.517105713078315],[116.84501072872398,38.51702073209711],[116.8460309182324,38.516156821237665],[116.84702775525633,38.515276387752536],[116.84720864673562,38.515159467343786],[116.84721278702642,38.51515596108826],[116.84721752032533,38.515153731823226],[116.8472735745734,38.51511750064424],[116.86523945270544,38.50382608525375],[116.88026174028072,38.47819415584768],[116.88091171763506,38.44163150931643],[116.87510948905,38.396489533137014],[116.85912808489182,38.359557605742474],[116.84272647337905,38.32165516982938],[116.84257044125005,38.32100312416686],[116.84230330177213,38.3203736617303],[116.84227338895921,38.31976173364613],[116.8421293727345,38.319159869909065],[116.84221169303557,38.31849958404136],[116.84217928783424,38.31783663426339],[116.84221642820206,38.31758886317558],[116.8480325744402,38.2829192684783],[116.84352675737308,38.25572748081405],[116.82821730310916,38.26235337552398],[116.82712120111144,38.26267940831853],[116.82606094387108,38.26307178172137],[116.82561536742638,38.26312729338069],[116.8251934706694,38.26325277507834],[116.82402499810723,38.263325413390874],[116.82286734451623,38.263469613728255],[116.8224197544537,38.26342518452913],[116.8219700082807,38.26345313375251],[116.82082220809143,38.26326659273967],[116.81965934009011,38.2631511383296],[116.81924537742832,38.263010305705244],[116.81880359458438,38.26293849730134],[116.81776786353797,38.2625076301499],[116.81669237702688,38.26214171517557],[116.81634500313947,38.261915692875625],[116.81594636071692,38.261749845154604],[116.81510516428106,38.26110895948314],[116.81420268861918,38.26052172075572],[116.81394955840462,38.26022850521369],[116.81362579425678,38.25998182396784],[116.81304609570446,38.25918194776007],[116.81238847117247,38.25842014218534],[116.81225305995034,38.25819445684418],[116.80261040528984,38.24152372226844],[116.77444490027965,38.21522474972996],[116.74561359623874,38.188304741064755],[116.72636750217643,38.17342943228833],[116.68107596476567,38.14777490946447],[116.63826290283522,38.12352571422699],[116.58759755967169,38.12502719790163],[116.58635200912178,38.1249247627211],[116.58510069271706,38.124884990174294],[116.58475269433808,38.12479321395158],[116.58438765168938,38.12476318491752],[116.58322806712657,38.12439111528536],[116.58204069889236,38.1240779471449],[116.58173914715381,38.12391335130561],[116.5813993040345,38.12380429908584],[116.58041801594577,38.12319222106451],[116.57938913686911,38.12263059449305],[116.57915804016471,38.12240628469828],[116.57887045460751,38.1222268929066],[116.57814558463612,38.12142354165125],[116.57735710301885,38.12065817522241],[116.57721485577531,38.12039201082219],[116.57700242068205,38.12015656297332],[116.57659165967875,38.11922589925252],[116.57610632826591,38.11831772913295],[116.57606424701967,38.11803090027805],[116.57594386754697,38.11775814153834],[116.57587988612924,38.11677425621466],[116.575736310239,38.115795581458016],[116.57574914576307,38.11554630719734],[116.57789749133899,38.084465335672036],[116.54130636702067,38.05292871415579],[116.54120602553509,38.05281283857344],[116.541072143806,38.05272034022198],[116.54029960188134,38.051766068891666],[116.53948997989617,38.050831057957666],[116.5394347390439,38.050697723960184],[116.5393390014311,38.050579459209004],[116.53893572813988,38.04949324581507],[116.53849001100738,38.048417369207456],[116.53848426429025,38.048277191658045],[116.53843428876515,38.04814257597563],[116.53843235213243,38.04701089322432],[116.53838598420538,38.045879798705535],[116.53843018407781,38.0457439362228],[116.53842994408168,38.04560368576941],[116.53847855389827,38.04535716157042],[116.55272514702233,37.979109127475986],[116.53372705916324,37.94075338589936],[116.51495967491209,37.90763066037235],[116.49608001507552,37.87430989025335],[116.49585990936366,37.87370303432003],[116.49553246985899,37.8731271404204],[116.49541950214221,37.872488751370085],[116.49533090378885,37.872244464533],[116.47231002863927,37.87249147932829],[116.47151074945171,37.87241022771429],[116.47070494749819,37.872419038599865],[116.46992378364304,37.87224888639566],[116.4691200672093,37.872167166933586],[116.4683813643634,37.871912900954],[116.46760452902863,37.87174367400749],[116.46691468293503,37.87140804147028],[116.46617188956118,37.871152348364255],[116.4655525809904,37.8707453138204],[116.46486656657234,37.870411524585656],[116.46432296239365,37.86993713599495],[116.46370023215067,37.86952782932909],[116.46324962129823,37.86900043511767],[116.4627090425599,37.86852866130763],[116.46235495132485,37.867953287364536],[116.46190185527531,37.86742295663658],[116.4616558045187,37.866817192310506],[116.46130368685286,37.8662449955934],[116.46116728205168,37.86561444405051],[116.4609198758541,37.86500531123368],[116.46089795381243,37.8643694019346],[116.46076230988261,37.863742335278715],[116.46075796808161,37.86349288009539],[116.46077001538781,37.78544875946987],[116.43573111516807,37.753827456865196],[116.40895762876166,37.72001677558462],[116.3821841329911,37.686206092504705],[116.35540914811645,37.65239353791063],[116.35520303254431,37.652026350066905],[116.3549113075205,37.651697548442264],[116.3545546943949,37.65087133181016],[116.35410683716655,37.65007344844909],[116.35403847292143,37.64967529322064],[116.35387436589609,37.64929506350448],[116.35382343302328,37.64842286689647],[116.35367488868798,37.64755769633546],[116.35374970437728,37.64716026925122],[116.3537262660371,37.646758880395474],[116.3539850373187,37.645910133306366],[116.35414759960392,37.645046544883826],[116.35435962586904,37.644681480378054],[116.35447870765958,37.64429088255278],[116.35502655623222,37.64353314109849],[116.35548725661167,37.64273987142369],[116.35581960566654,37.64243622504532],[116.35607171686273,37.6420875064535],[116.35626867923456,37.64189278835185],[116.36416769640326,37.634300802349046],[116.32766273171501,37.605035787924876],[116.32575499797457,37.60299577394937],[116.3246424976892,37.600614785216564],[116.32441371816564,37.59808237143703],[116.32508678196369,37.595600117776065],[116.32660803189538,37.593365597109766],[116.32885632750286,37.59155664775767],[116.33165270310396,37.59031722676668],[116.33477461387233,37.58974596194951],[116.33797363584146,37.589888310498715],[116.34099521545782,37.590732945424115],[116.34359890441029,37.592212655947954],[116.34382327165785,37.592387679124315],[116.38754038590722,37.62742431426965],[116.38762763590803,37.62751745832502],[116.38774196102581,37.62758993217743],[116.38858107243472,37.62853528355232],[116.38945044150577,37.629463332987896],[116.38950137403873,37.629572070136625],[116.3895855943684,37.62966694865196],[116.3900579477744,37.63076029127461],[116.39056544890325,37.631843712625376],[116.39057600700772,37.631959388686184],[116.39062341670832,37.63206912090558],[116.39069138258128,37.6332234359837],[116.39079658579958,37.63437599803687],[116.3907659250918,37.63448940572063],[116.39077274678583,37.63460525770062],[116.390430874849,37.6357286649271],[116.39012536528263,37.63685862439585],[116.39005592240353,37.636960736065156],[116.39002160896848,37.63707348584466],[116.38929707458139,37.638076556211395],[116.38860513497438,37.639093960161],[116.38850243486652,37.63917664657377],[116.38842971427025,37.639277318263275],[116.38823284313743,37.6394720898177],[116.37902019120281,37.64833046108247],[116.40145137046267,37.676645690439656],[116.40145157068993,37.67664604654796],[116.40145433468545,37.67664943255588],[116.42823613412601,37.71045950135636],[116.42823633452426,37.71045985780286],[116.42823910131428,37.71046324721518],[116.45502090715115,37.744273314071],[116.45502110772037,37.74427367085574],[116.45502387730555,37.74427706367324],[116.48180568955438,37.77808712858453],[116.48237917048841,37.779107353959134],[116.48299667040472,37.780111403564554],[116.48302989728926,37.780264962635165],[116.48310992881434,37.78040733174853],[116.48330007100749,37.7815135547658],[116.48353818777949,37.78261396210062],[116.48354260177976,37.782863416440804],[116.48355363847433,37.854372000785],[116.51285232196655,37.85405398237667],[116.51382407215895,37.8541524451814],[116.51480365998569,37.8541651402422],[116.51541111099299,37.8543132345087],[116.51604169151612,37.85437711506609],[116.51693995314946,37.854685944022314],[116.51787608020742,37.8549141465861],[116.51840698327548,37.855190299533994],[116.51898988435453,37.85539069020369],[116.5197431765498,37.85588531011571],[116.52056134832202,37.856310861903694],[116.52097345249358,37.85669309819436],[116.52146228587716,37.85701405331324],[116.5220106542782,37.857655103291876],[116.52264575265458,37.8582441404213],[116.52290625360368,37.858702041411476],[116.52326210940669,37.85911801975592],[116.52356189614203,37.859854483074194],[116.52396336020911,37.860560128376555],[116.52405151172368,37.861057251230655],[116.52424605526124,37.861535146889246],[116.52427337652394,37.86230840864308],[116.52440922941996,37.86307449979332],[116.52431799802302,37.86357127652092],[116.52433572792074,37.86407305217741],[116.52408838160092,37.86482156278222],[116.5239477822117,37.86558712050672],[116.52368441220972,37.8660440067273],[116.52352389921339,37.86652972035232],[116.523021548716,37.86719389436366],[116.5226156631221,37.8678979757802],[116.52244181830856,37.868106315469205],[116.51948770822408,37.87154174783034],[116.5357812607057,37.90028198205209],[116.53578136406422,37.90028226646269],[116.53578298936017,37.90028503143793],[116.55467105638076,37.93360399954022],[116.55470352247761,37.93369335241422],[116.55476428422344,37.93377299485857],[116.55488345710191,37.93400408952719],[116.5751417064288,37.974878845841964],[116.57544105923044,37.97588161258276],[116.57580827695313,37.97687026534904],[116.575808816716,37.977113481585086],[116.5758794964511,37.97735023104021],[116.57581162529883,37.9783789982296],[116.5758139116127,37.97940915397575],[116.57576547102035,37.97965569351691],[116.56194210323338,38.044033711647224],[116.5980113100983,38.075110702168764],[116.59865807607608,38.075856380296145],[116.5993804829078,38.07655771091008],[116.59956364573458,38.07690041033845],[116.59982997779592,38.077207457219295],[116.60018645164868,38.07806566010076],[116.6006312882579,38.07889791029332],[116.60068557050934,38.07926724201606],[116.60083236399412,38.07962062566756],[116.60087014596103,38.080523049256826],[116.60100197851224,38.08141997983131],[116.60098923510344,38.081669256829045],[116.5992690993599,38.10667284306139],[116.6413243523195,38.10542358148907],[116.6417153540422,38.105455563664655],[116.64210603721698,38.10542125574184],[116.64331407054358,38.10558631768546],[116.64453361556082,38.10568604557769],[116.64489770949287,38.105802681357574],[116.64528502595473,38.10585559479483],[116.64638641497845,38.106279565600175],[116.64752205004538,38.106643332269314],[116.64783026325905,38.10683534030279],[116.64818339263964,38.106971264996766],[116.64844320357972,38.107114254939454],[116.69444553219388,38.13316840534453],[116.69444601401692,38.13316876936717],[116.69445170832803,38.133171903296656],[116.74045403684164,38.15922605157842],[116.74097232817634,38.15961761586657]]]},"id":"2","properties":{"buffer":"1000m"}}]}